[{"OBJECT_NAME":"STARLINK-3059","OBJECT_ID":"2021-082BD","EPOCH":"2026-03-09T22:26:33.514368","MEAN_MOTION":14.98326436,"ECCENTRICITY":0.00023522,"INCLINATION":69.9989,"RA_OF_ASC_NODE":293.8388,"ARG_OF_PERICENTER":266.3981,"MEAN_ANOMALY":93.6909,"EPHEMERIS_TYPE":0,"CLASSIFICATION_TYPE":"U","NORAD_CAT_ID":49181,"ELEMENT_SET_NO":999,"REV_AT_EPOCH":24720,"BSTAR":-0.00010428634,"MEAN_MOTION_DOT":-1.337e-5,"MEAN_MOTION_DDOT":0},{"OBJECT_NAME":"DEMOSAT\/FALCON 1","OBJECT_ID":"2008-048A","EPOCH":"2026-03-09T20:26:53.902464","MEAN_MOTION":14.96189084,"ECCENTRICITY":0.00103169,"INCLINATION":9.3439,"RA_OF_ASC_NODE":185.2154,"ARG_OF_PERICENTER":2.5079,"MEAN_ANOMALY":357.5172,"EPHEMERIS_TYPE":0,"CLASSIFICATION_TYPE":"U","NORAD_CAT_ID":33393,"ELEMENT_SET_NO":999,"REV_AT_EPOCH":94801,"BSTAR":0.00032870725,"MEAN_MOTION_DOT":4.521e-5,"MEAN_MOTION_DDOT":0}]
